{
  "type": "FeatureCollection",
  "features": [
    {
      "type": "Feature",
      "properties": {
        "norad_id": 66725,
        "name": "FLOCK 4H-22",
        "group": "last-30-days",
        "lat": 45.699601307026555,
        "lon": -101.48445867665315,
        "alt_km": 510.2705384660321,
        "timestamp": "2025-12-25T07:00:32.763415+00:00",
        "meta_object_name": "FLOCK 4H-22",
        "meta_object_id": "2025-276BM",
        "meta_epoch": "2025-12-24T20:55:35.283360",
        "meta_mean_motion": 15.17515229,
        "meta_eccentricity": 0.0001509,
        "meta_inclination": 97.4373,
        "meta_ra_of_asc_node": 70.4103,
        "meta_arg_of_pericenter": 278.6483,
        "meta_mean_anomaly": 81.4579,
        "meta_ephemeris_type": 0,
        "meta_classification_type": "U",
        "meta_norad_cat_id": 66725,
        "meta_element_set_no": 999,
        "meta_rev_at_epoch": 396,
        "meta_bstar": 0.00033136899,
        "meta_mean_motion_dot": 6.579e-05,
        "meta_mean_motion_ddot": 0,
        "tle_line1": "1 66725U 25276BM  25358.87193615  .00006579  00000+0  33137-3 0  9997",
        "tle_line2": "2 66725  97.4373  70.4103 0001509 278.6483  81.4579 15.17515229  3969"
      },
      "geometry": {
        "type": "Point",
        "coordinates": [
          -101.48445867665315,
          45.699601307026555
        ]
      }
    },
    {
      "type": "Feature",
      "properties": {
        "norad_id": 66726,
        "name": "FLOCK 4H-23",
        "group": "last-30-days",
        "lat": 66.9586731127286,
        "lon": -91.25792892212475,
        "alt_km": 508.6949444021402,
        "timestamp": "2025-12-25T07:00:32.763428+00:00",
        "meta_object_name": "FLOCK 4H-23",
        "meta_object_id": "2025-276BN",
        "meta_epoch": "2025-12-24T16:00:01.999584",
        "meta_mean_motion": 15.17231684,
        "meta_eccentricity": 0.00035654,
        "meta_inclination": 97.444,
        "meta_ra_of_asc_node": 70.2245,
        "meta_arg_of_pericenter": 232.7389,
        "meta_mean_anomaly": 65.5049,
        "meta_ephemeris_type": 0,
        "meta_classification_type": "U",
        "meta_norad_cat_id": 66726,
        "meta_element_set_no": 999,
        "meta_rev_at_epoch": 335,
        "meta_bstar": 0.0027168143,
        "meta_mean_motion_dot": 0.00054338,
        "meta_mean_motion_ddot": 0,
        "tle_line1": "1 66726U 25276BN  25358.66668981  .00054338  00000+0  27168-2 0  9990",
        "tle_line2": "2 66726  97.4440  70.2245 0003565 232.7389  65.5049 15.17231684  3358"
      },
      "geometry": {
        "type": "Point",
        "coordinates": [
          -91.25792892212475,
          66.9586731127286
        ]
      }
    },
    {
      "type": "Feature",
      "properties": {
        "norad_id": 66727,
        "name": "FLOCK 4H-24",
        "group": "last-30-days",
        "lat": 57.311578585333145,
        "lon": -97.39774446737158,
        "alt_km": 509.6057315592543,
        "timestamp": "2025-12-25T07:00:32.763440+00:00",
        "meta_object_name": "FLOCK 4H-24",
        "meta_object_id": "2025-276BP",
        "meta_epoch": "2025-12-24T20:58:38.561088",
        "meta_mean_motion": 15.17349732,
        "meta_eccentricity": 0.00028672,
        "meta_inclination": 97.4437,
        "meta_ra_of_asc_node": 70.4355,
        "meta_arg_of_pericenter": 252.0788,
        "meta_mean_anomaly": 108.0133,
        "meta_ephemeris_type": 0,
        "meta_classification_type": "U",
        "meta_norad_cat_id": 66727,
        "meta_element_set_no": 999,
        "meta_rev_at_epoch": 396,
        "meta_bstar": 0.00031501016,
        "meta_mean_motion_dot": 6.222e-05,
        "meta_mean_motion_ddot": 0,
        "tle_line1": "1 66727U 25276BP  25358.87405742  .00006222  00000+0  31501-3 0  9994",
        "tle_line2": "2 66727  97.4437  70.4355 0002867 252.0788 108.0133 15.17349732  3969"
      },
      "geometry": {
        "type": "Point",
        "coordinates": [
          -97.39774446737158,
          57.311578585333145
        ]
      }
    },
    {
      "type": "Feature",
      "properties": {
        "norad_id": 66728,
        "name": "FLOCK 4H-25",
        "group": "last-30-days",
        "lat": -26.464467718340263,
        "lon": -112.86545247064471,
        "alt_km": 516.9894086262748,
        "timestamp": "2025-12-25T07:00:32.763450+00:00",
        "meta_object_name": "FLOCK 4H-25",
        "meta_object_id": "2025-276BQ",
        "meta_epoch": "2025-12-24T22:11:35.314656",
        "meta_mean_motion": 15.18236988,
        "meta_eccentricity": 0.00017435,
        "meta_inclination": 97.4394,
        "meta_ra_of_asc_node": 70.5029,
        "meta_arg_of_pericenter": 115.6442,
        "meta_mean_anomaly": 244.4972,
        "meta_ephemeris_type": 0,
        "meta_classification_type": "U",
        "meta_norad_cat_id": 66728,
        "meta_element_set_no": 999,
        "meta_rev_at_epoch": 325,
        "meta_bstar": 0.00030076272,
        "meta_mean_motion_dot": 6.091e-05,
        "meta_mean_motion_ddot": 0,
        "tle_line1": "1 66728U 25276BQ  25358.92471429  .00006091  00000+0  30076-3 0  9996",
        "tle_line2": "2 66728  97.4394  70.5029 0001743 115.6442 244.4972 15.18236988  3251"
      },
      "geometry": {
        "type": "Point",
        "coordinates": [
          -112.86545247064471,
          -26.464467718340263
        ]
      }
    },
    {
      "type": "Feature",
      "properties": {
        "norad_id": 66729,
        "name": "FLOCK 4H-26",
        "group": "last-30-days",
        "lat": 75.00446503478739,
        "lon": -79.98614894595904,
        "alt_km": 509.3509760324632,
        "timestamp": "2025-12-25T07:00:32.763461+00:00",
        "meta_object_name": "FLOCK 4H-26",
        "meta_object_id": "2025-276BR",
        "meta_epoch": "2025-12-24T21:03:32.485248",
        "meta_mean_motion": 15.17177496,
        "meta_eccentricity": 0.00036845,
        "meta_inclination": 97.4389,
        "meta_ra_of_asc_node": 70.4123,
        "meta_arg_of_pericenter": 250.9397,
        "meta_mean_anomaly": 109.1438,
        "meta_ephemeris_type": 0,
        "meta_classification_type": "U",
        "meta_norad_cat_id": 66729,
        "meta_element_set_no": 999,
        "meta_rev_at_epoch": 396,
        "meta_bstar": 0.00050739253,
        "meta_mean_motion_dot": 0.00010018,
        "meta_mean_motion_ddot": 0,
        "tle_line1": "1 66729U 25276BR  25358.87745932  .00010018  00000+0  50739-3 0  9996",
        "tle_line2": "2 66729  97.4389  70.4123 0003684 250.9397 109.1438 15.17177496  3967"
      },
      "geometry": {
        "type": "Point",
        "coordinates": [
          -79.98614894595904,
          75.00446503478739
        ]
      }
    },
    {
      "type": "Feature",
      "properties": {
        "norad_id": 66730,
        "name": "FLOCK 4H-27",
        "group": "last-30-days",
        "lat": -13.806316469706587,
        "lon": -110.98963642443226,
        "alt_km": 515.8871558756864,
        "timestamp": "2025-12-25T07:00:32.763471+00:00",
        "meta_object_name": "FLOCK 4H-27",
        "meta_object_id": "2025-276BS",
        "meta_epoch": "2025-12-24T20:39:59.973120",
        "meta_mean_motion": 15.18111368,
        "meta_eccentricity": 0.00013561,
        "meta_inclination": 97.4369,
        "meta_ra_of_asc_node": 70.4263,
        "meta_arg_of_pericenter": 125.6579,
        "meta_mean_anomaly": 234.4782,
        "meta_ephemeris_type": 0,
        "meta_classification_type": "U",
        "meta_norad_cat_id": 66730,
        "meta_element_set_no": 999,
        "meta_rev_at_epoch": 396,
        "meta_bstar": 0.00049789275,
        "meta_mean_motion_dot": 0.00010095,
        "meta_mean_motion_ddot": 0,
        "tle_line1": "1 66730U 25276BS  25358.86111080  .00010095  00000+0  49789-3 0  9996",
        "tle_line2": "2 66730  97.4369  70.4263 0001356 125.6579 234.4782 15.18111368  3967"
      },
      "geometry": {
        "type": "Point",
        "coordinates": [
          -110.98963642443226,
          -13.806316469706587
        ]
      }
    },
    {
      "type": "Feature",
      "properties": {
        "norad_id": 66731,
        "name": "FLOCK 4H-28",
        "group": "last-30-days",
        "lat": 73.60525683664282,
        "lon": -82.82324151565399,
        "alt_km": 509.17501377879944,
        "timestamp": "2025-12-25T07:00:32.763481+00:00",
        "meta_object_name": "FLOCK 4H-28",
        "meta_object_id": "2025-276BT",
        "meta_epoch": "2025-12-24T19:28:08.563008",
        "meta_mean_motion": 15.17156183,
        "meta_eccentricity": 0.00030736,
        "meta_inclination": 97.4378,
        "meta_ra_of_asc_node": 70.3439,
        "meta_arg_of_pericenter": 254.7297,
        "meta_mean_anomaly": 105.3597,
        "meta_ephemeris_type": 0,
        "meta_classification_type": "U",
        "meta_norad_cat_id": 66731,
        "meta_element_set_no": 999,
        "meta_rev_at_epoch": 395,
        "meta_bstar": 0.00077977693,
        "meta_mean_motion_dot": 0.00015432,
        "meta_mean_motion_ddot": 0,
        "tle_line1": "1 66731U 25276BT  25358.81121022  .00015432  00000+0  77978-3 0  9990",
        "tle_line2": "2 66731  97.4378  70.3439 0003073 254.7297 105.3597 15.17156183  3953"
      },
      "geometry": {
        "type": "Point",
        "coordinates": [
          -82.82324151565399,
          73.60525683664282
        ]
      }
    }
  ]
}